[
    {
        "CCSDS_OMM_VERS": "3.0",
        "COMMENT": "GENERATED VIA SPACE-TRACK.ORG API",
        "CREATION_DATE": "2025-02-20T17:16:22",
        "ORIGINATOR": "18 SPCS",
        "OBJECT_NAME": "VANGUARD 1",
        "OBJECT_ID": "1958-002B",
        "CENTER_NAME": "EARTH",
        "REF_FRAME": "TEME",
        "TIME_SYSTEM": "UTC",
        "MEAN_ELEMENT_THEORY": "SGP4",
        "EPOCH": "2025-02-20T05:15:52.510464",
        "MEAN_MOTION": "10.85877578",
        "ECCENTRICITY": "0.18411920",
        "INCLINATION": "34.2495",
        "RA_OF_ASC_NODE": "1.9173",
        "ARG_OF_PERICENTER": "125.4005",
        "MEAN_ANOMALY": "253.2754",
        "EPHEMERIS_TYPE": "0",
        "CLASSIFICATION_TYPE": "U",
        "NORAD_CAT_ID": "5",
        "ELEMENT_SET_NO": "999",
        "REV_AT_EPOCH": "39088",
        "BSTAR": "0.00042675000000",
        "MEAN_MOTION_DOT": "0.00000328",
        "MEAN_MOTION_DDOT": "0.0000000000000",
        "SEMIMAJOR_AXIS": "8614.193",
        "PERIOD": "132.612",
        "APOAPSIS": "3822.096",
        "PERIAPSIS": "650.020",
        "OBJECT_TYPE": "PAYLOAD",
        "RCS_SIZE": "SMALL",
        "COUNTRY_CODE": "US",
        "LAUNCH_DATE": "1958-03-17",
        "SITE": "AFETR",
        "DECAY_DATE": null,
        "FILE": "4646637",
        "GP_ID": "281257566",
        "TLE_LINE0": "0 VANGUARD 1",
        "TLE_LINE1": "1 00005U 58002B   25051.21935776  .00000328  00000-0  42675-3 0  9993",
        "TLE_LINE2": "2 00005  34.2495   1.9173 1841192 125.4005 253.2754 10.85877578390880"
    },
    {
        "CCSDS_OMM_VERS": "3.0",
        "COMMENT": "GENERATED VIA SPACE-TRACK.ORG API",
        "CREATION_DATE": "2025-02-20T17:16:22",
        "ORIGINATOR": "18 SPCS",
        "OBJECT_NAME": "VANGUARD 2",
        "OBJECT_ID": "1959-001A",
        "CENTER_NAME": "EARTH",
        "REF_FRAME": "TEME",
        "TIME_SYSTEM": "UTC",
        "MEAN_ELEMENT_THEORY": "SGP4",
        "EPOCH": "2025-02-20T12:25:18.792768",
        "MEAN_MOTION": "11.89212051",
        "ECCENTRICITY": "0.14503150",
        "INCLINATION": "32.8691",
        "RA_OF_ASC_NODE": "106.8519",
        "ARG_OF_PERICENTER": "197.6296",
        "MEAN_ANOMALY": "156.8357",
        "EPHEMERIS_TYPE": "0",
        "CLASSIFICATION_TYPE": "U",
        "NORAD_CAT_ID": "11",
        "ELEMENT_SET_NO": "999",
        "REV_AT_EPOCH": "47807",
        "BSTAR": "0.00123910000000",
        "MEAN_MOTION_DOT": "0.00002361",
        "MEAN_MOTION_DDOT": "0.0000000000000",
        "SEMIMAJOR_AXIS": "8107.662",
        "PERIOD": "121.089",
        "APOAPSIS": "2905.393",
        "PERIAPSIS": "553.661",
        "OBJECT_TYPE": "PAYLOAD",
        "RCS_SIZE": "MEDIUM",
        "COUNTRY_CODE": "US",
        "LAUNCH_DATE": "1959-02-17",
        "SITE": "AFETR",
        "DECAY_DATE": null,
        "FILE": "4646637",
        "GP_ID": "281258066",
        "TLE_LINE0": "0 VANGUARD 2",
        "TLE_LINE1": "1 00011U 59001A   25051.51757862  .00002361  00000-0  12391-2 0  9991",
        "TLE_LINE2": "2 00011  32.8691 106.8519 1450315 197.6296 156.8357 11.89212051478073"
    },
    {
        "CCSDS_OMM_VERS": "3.0",
        "COMMENT": "GENERATED VIA SPACE-TRACK.ORG API",
        "CREATION_DATE": "2025-02-20T17:16:22",
        "ORIGINATOR": "18 SPCS",
        "OBJECT_NAME": "VANGUARD R\/B",
        "OBJECT_ID": "1959-001B",
        "CENTER_NAME": "EARTH",
        "REF_FRAME": "TEME",
        "TIME_SYSTEM": "UTC",
        "MEAN_ELEMENT_THEORY": "SGP4",
        "EPOCH": "2025-02-20T12:32:08.409984",
        "MEAN_MOTION": "11.47595905",
        "ECCENTRICITY": "0.16509290",
        "INCLINATION": "32.8970",
        "RA_OF_ASC_NODE": "121.5362",
        "ARG_OF_PERICENTER": "76.1408",
        "MEAN_ANOMALY": "301.6731",
        "EPHEMERIS_TYPE": "0",
        "CLASSIFICATION_TYPE": "U",
        "NORAD_CAT_ID": "12",
        "ELEMENT_SET_NO": "999",
        "REV_AT_EPOCH": "47595",
        "BSTAR": "0.00043634000000",
        "MEAN_MOTION_DOT": "0.00000733",
        "MEAN_MOTION_DDOT": "0.0000000000000",
        "SEMIMAJOR_AXIS": "8302.506",
        "PERIOD": "125.480",
        "APOAPSIS": "3295.055",
        "PERIAPSIS": "553.686",
        "OBJECT_TYPE": "ROCKET BODY",
        "RCS_SIZE": "MEDIUM",
        "COUNTRY_CODE": "US",
        "LAUNCH_DATE": "1959-02-17",
        "SITE": "AFETR",
        "DECAY_DATE": null,
        "FILE": "4646637",
        "GP_ID": "281257567",
        "TLE_LINE0": "0 VANGUARD R\/B",
        "TLE_LINE1": "1 00012U 59001B   25051.52231956  .00000733  00000-0  43634-3 0  9990",
        "TLE_LINE2": "2 00012  32.8970 121.5362 1650929  76.1408 301.6731 11.47595905475959"
    }
]